STARLINK-35843          
1 67606U 26018T   26052.14678626  .00329193  00000+0  21097-2 0  9994
2 67606  97.2825 117.1378 0001437 124.4877 235.6525 15.75345727  4701
STARLINK-36351          
1 67607U 26018U   26052.13302691  .00279805  00000+0  18064-2 0  9994
2 67607  97.2832 117.1583 0001596 117.3606 242.7822 15.75313238  4706
STARLINK-36411          
1 67608U 26018V   26052.11843217  .00445786  00000+0  21867-2 0  9995
2 67608  97.2844 117.1754 0001739 130.5515 229.5905 15.81060791  4700
STARLINK-36312          
1 67609U 26018W   26052.13090932  .00345631  00000+0  22111-2 0  9997
2 67609  97.2832 117.1607 0001654 123.2256 236.9168 15.75341583  4709
STARLINK-36387          
1 67610U 26018X   26052.17911587  .00122922  00000+0  63200-3 0  9992
2 67610  97.2851 117.2453 0001415  65.3951 294.7465 15.80867053  4719
STARLINK-36636          
1 67611U 26018Y   26052.11492205  .00373487  00000+0  18985-2 0  9991
2 67611  97.2865 117.1733 0003726  47.9397 312.2187 15.80461123  4706
STARLINK-36407          
1 67612U 26018Z   26052.25002315 -.00175943  00000+0 -12002-2 0  9999
2 67612  97.2838 117.3011 0001242  86.8811 264.2511 15.75246312  4816
STARLINK-36597          
1 67613U 26018AA  26052.11280828  .00447682  00000+0  21980-2 0  9997
2 67613  97.2850 117.1817 0001267  96.7743 263.3670 15.81034939  4705
NEONSAT-1A              
1 67614U 26019A   26052.25396690  .00003267  00000+0  21807-3 0  9995
2 67614  97.4102 176.4217 0012311 225.9812 134.0403 15.07645429  3342
ELECTRON KICK STAGE R/B 
1 67616U 26019C   26052.27233657  .00517027  83135-4  20874-2 0  9993
2 67616  97.4030 178.2248 0158201 181.8306 178.2399 15.69621266  3463
STARLINK-36548          
1 67617U 26020A   26051.89130149  .00423859  00000+0  24423-2 0  9993
2 67617  42.9978 244.3767 0002599 275.3467  84.7107 15.76693958  3436
STARLINK-36601          
1 67618U 26020B   26051.53602112  .00474833  00000+0  21339-2 0  9990
2 67618  42.9977 245.9900 0001823 252.4752 107.5921 15.82038173  3385
