CCSDS_OMM_VERS = 2.0
CREATION_DATE  = 
ORIGINATOR     = 

OBJECT_NAME    = STARLINK-35843
OBJECT_ID      = 2026-018T
CENTER_NAME    = EARTH
REF_FRAME      = TEME
TIME_SYSTEM    = UTC
MEAN_ELEMENT_THEORY = SGP/SGP4

EPOCH          = 2026-02-21T03:31:22.332864
MEAN_MOTION    = 15.75345727
ECCENTRICITY   = .00014379
INCLINATION    = 97.2825
RA_OF_ASC_NODE = 117.1378
ARG_OF_PERICENTER = 124.4877
MEAN_ANOMALY   = 235.6525

EPHEMERIS_TYPE = 0
CLASSIFICATION_TYPE = U
NORAD_CAT_ID   = 67606
ELEMENT_SET_NO = 999
REV_AT_EPOCH   = 470
BSTAR          = .21096943E-2
MEAN_MOTION_DOT = .329193E-2
MEAN_MOTION_DDOT = 0

CCSDS_OMM_VERS = 2.0
CREATION_DATE  = 
ORIGINATOR     = 

OBJECT_NAME    = STARLINK-36351
OBJECT_ID      = 2026-018U
CENTER_NAME    = EARTH
REF_FRAME      = TEME
TIME_SYSTEM    = UTC
MEAN_ELEMENT_THEORY = SGP/SGP4

EPOCH          = 2026-02-21T03:11:33.525024
MEAN_MOTION    = 15.75313238
ECCENTRICITY   = .00015967
INCLINATION    = 97.2832
RA_OF_ASC_NODE = 117.1583
ARG_OF_PERICENTER = 117.3606
MEAN_ANOMALY   = 242.7822

EPHEMERIS_TYPE = 0
CLASSIFICATION_TYPE = U
NORAD_CAT_ID   = 67607
ELEMENT_SET_NO = 999
REV_AT_EPOCH   = 470
BSTAR          = .18063633E-2
MEAN_MOTION_DOT = .279805E-2
MEAN_MOTION_DDOT = 0

CCSDS_OMM_VERS = 2.0
CREATION_DATE  = 
ORIGINATOR     = 

OBJECT_NAME    = STARLINK-36411
OBJECT_ID      = 2026-018V
CENTER_NAME    = EARTH
REF_FRAME      = TEME
TIME_SYSTEM    = UTC
MEAN_ELEMENT_THEORY = SGP/SGP4

EPOCH          = 2026-02-21T02:50:32.539488
MEAN_MOTION    = 15.81060791
ECCENTRICITY   = .00017395
INCLINATION    = 97.2844
RA_OF_ASC_NODE = 117.1754
ARG_OF_PERICENTER = 130.5515
MEAN_ANOMALY   = 229.5905

EPHEMERIS_TYPE = 0
CLASSIFICATION_TYPE = U
NORAD_CAT_ID   = 67608
ELEMENT_SET_NO = 999
REV_AT_EPOCH   = 470
BSTAR          = .21866671E-2
MEAN_MOTION_DOT = .445786E-2
MEAN_MOTION_DDOT = 0

CCSDS_OMM_VERS = 2.0
CREATION_DATE  = 
ORIGINATOR     = 

OBJECT_NAME    = STARLINK-36312
OBJECT_ID      = 2026-018W
CENTER_NAME    = EARTH
REF_FRAME      = TEME
TIME_SYSTEM    = UTC
MEAN_ELEMENT_THEORY = SGP/SGP4

EPOCH          = 2026-02-21T03:08:30.565248
MEAN_MOTION    = 15.75341583
ECCENTRICITY   = .00016543
INCLINATION    = 97.2832
RA_OF_ASC_NODE = 117.1607
ARG_OF_PERICENTER = 123.2256
MEAN_ANOMALY   = 236.9168

EPHEMERIS_TYPE = 0
CLASSIFICATION_TYPE = U
NORAD_CAT_ID   = 67609
ELEMENT_SET_NO = 999
REV_AT_EPOCH   = 470
BSTAR          = .22110896E-2
MEAN_MOTION_DOT = .345631E-2
MEAN_MOTION_DDOT = 0

CCSDS_OMM_VERS = 2.0
CREATION_DATE  = 
ORIGINATOR     = 

OBJECT_NAME    = STARLINK-36387
OBJECT_ID      = 2026-018X
CENTER_NAME    = EARTH
REF_FRAME      = TEME
TIME_SYSTEM    = UTC
MEAN_ELEMENT_THEORY = SGP/SGP4

EPOCH          = 2026-02-21T04:17:55.611168
MEAN_MOTION    = 15.80867053
ECCENTRICITY   = .00014157
INCLINATION    = 97.2851
RA_OF_ASC_NODE = 117.2453
ARG_OF_PERICENTER = 65.3951
MEAN_ANOMALY   = 294.7465

EPHEMERIS_TYPE = 0
CLASSIFICATION_TYPE = U
NORAD_CAT_ID   = 67610
ELEMENT_SET_NO = 999
REV_AT_EPOCH   = 471
BSTAR          = .63199942E-3
MEAN_MOTION_DOT = .122922E-2
MEAN_MOTION_DDOT = 0

CCSDS_OMM_VERS = 2.0
CREATION_DATE  = 
ORIGINATOR     = 

OBJECT_NAME    = STARLINK-36636
OBJECT_ID      = 2026-018Y
CENTER_NAME    = EARTH
REF_FRAME      = TEME
TIME_SYSTEM    = UTC
MEAN_ELEMENT_THEORY = SGP/SGP4

EPOCH          = 2026-02-21T02:45:29.265120
MEAN_MOTION    = 15.80461123
ECCENTRICITY   = .00037261
INCLINATION    = 97.2865
RA_OF_ASC_NODE = 117.1733
ARG_OF_PERICENTER = 47.9397
MEAN_ANOMALY   = 312.2187

EPHEMERIS_TYPE = 0
CLASSIFICATION_TYPE = U
NORAD_CAT_ID   = 67611
ELEMENT_SET_NO = 999
REV_AT_EPOCH   = 470
BSTAR          = .18984686E-2
MEAN_MOTION_DOT = .373487E-2
MEAN_MOTION_DDOT = 0

CCSDS_OMM_VERS = 2.0
CREATION_DATE  = 
ORIGINATOR     = 

OBJECT_NAME    = STARLINK-36407
OBJECT_ID      = 2026-018Z
CENTER_NAME    = EARTH
REF_FRAME      = TEME
TIME_SYSTEM    = UTC
MEAN_ELEMENT_THEORY = SGP/SGP4

EPOCH          = 2026-02-21T06:00:02.000160
MEAN_MOTION    = 15.75246312
ECCENTRICITY   = .00012427
INCLINATION    = 97.2838
RA_OF_ASC_NODE = 117.3011
ARG_OF_PERICENTER = 86.8811
MEAN_ANOMALY   = 264.2511

EPHEMERIS_TYPE = 0
CLASSIFICATION_TYPE = U
NORAD_CAT_ID   = 67612
ELEMENT_SET_NO = 999
REV_AT_EPOCH   = 481
BSTAR          = -.12002162E-2
MEAN_MOTION_DOT = -.175943E-2
MEAN_MOTION_DDOT = 0

CCSDS_OMM_VERS = 2.0
CREATION_DATE  = 
ORIGINATOR     = 

OBJECT_NAME    = STARLINK-36597
OBJECT_ID      = 2026-018AA
CENTER_NAME    = EARTH
REF_FRAME      = TEME
TIME_SYSTEM    = UTC
MEAN_ELEMENT_THEORY = SGP/SGP4

EPOCH          = 2026-02-21T02:42:26.635392
MEAN_MOTION    = 15.81034939
ECCENTRICITY   = .00012678
INCLINATION    = 97.2850
RA_OF_ASC_NODE = 117.1817
ARG_OF_PERICENTER = 96.7743
MEAN_ANOMALY   = 263.3670

EPHEMERIS_TYPE = 0
CLASSIFICATION_TYPE = U
NORAD_CAT_ID   = 67613
ELEMENT_SET_NO = 999
REV_AT_EPOCH   = 470
BSTAR          = .21980071E-2
MEAN_MOTION_DOT = .447682E-2
MEAN_MOTION_DDOT = 0

CCSDS_OMM_VERS = 2.0
CREATION_DATE  = 
ORIGINATOR     = 

OBJECT_NAME    = NEONSAT-1A
OBJECT_ID      = 2026-019A
CENTER_NAME    = EARTH
REF_FRAME      = TEME
TIME_SYSTEM    = UTC
MEAN_ELEMENT_THEORY = SGP/SGP4

EPOCH          = 2026-02-21T06:05:42.740160
MEAN_MOTION    = 15.07645429
ECCENTRICITY   = .00123118
INCLINATION    = 97.4102
RA_OF_ASC_NODE = 176.4217
ARG_OF_PERICENTER = 225.9812
MEAN_ANOMALY   = 134.0403

EPHEMERIS_TYPE = 0
CLASSIFICATION_TYPE = U
NORAD_CAT_ID   = 67614
ELEMENT_SET_NO = 999
REV_AT_EPOCH   = 334
BSTAR          = .2180748E-3
MEAN_MOTION_DOT = .3267E-4
MEAN_MOTION_DDOT = 0

CCSDS_OMM_VERS = 2.0
CREATION_DATE  = 
ORIGINATOR     = 

OBJECT_NAME    = ELECTRON KICK STAGE R/B
OBJECT_ID      = 2026-019C
CENTER_NAME    = EARTH
REF_FRAME      = TEME
TIME_SYSTEM    = UTC
MEAN_ELEMENT_THEORY = SGP/SGP4

EPOCH          = 2026-02-21T06:32:09.879648
MEAN_MOTION    = 15.69621266
ECCENTRICITY   = .01582017
INCLINATION    = 97.4030
RA_OF_ASC_NODE = 178.2248
ARG_OF_PERICENTER = 181.8306
MEAN_ANOMALY   = 178.2399

EPHEMERIS_TYPE = 0
CLASSIFICATION_TYPE = U
NORAD_CAT_ID   = 67616
ELEMENT_SET_NO = 999
REV_AT_EPOCH   = 346
BSTAR          = .20873544E-2
MEAN_MOTION_DOT = .517027E-2
MEAN_MOTION_DDOT = .83134971E-4

CCSDS_OMM_VERS = 2.0
CREATION_DATE  = 
ORIGINATOR     = 

OBJECT_NAME    = STARLINK-36548
OBJECT_ID      = 2026-020A
CENTER_NAME    = EARTH
REF_FRAME      = TEME
TIME_SYSTEM    = UTC
MEAN_ELEMENT_THEORY = SGP/SGP4

EPOCH          = 2026-02-20T21:23:28.448736
MEAN_MOTION    = 15.76693958
ECCENTRICITY   = .0002599
INCLINATION    = 42.9978
RA_OF_ASC_NODE = 244.3767
ARG_OF_PERICENTER = 275.3467
MEAN_ANOMALY   = 84.7107

EPHEMERIS_TYPE = 0
CLASSIFICATION_TYPE = U
NORAD_CAT_ID   = 67617
ELEMENT_SET_NO = 999
REV_AT_EPOCH   = 343
BSTAR          = .24423E-2
MEAN_MOTION_DOT = .423859E-2
MEAN_MOTION_DDOT = 0

CCSDS_OMM_VERS = 2.0
CREATION_DATE  = 
ORIGINATOR     = 

OBJECT_NAME    = STARLINK-36601
OBJECT_ID      = 2026-020B
CENTER_NAME    = EARTH
REF_FRAME      = TEME
TIME_SYSTEM    = UTC
MEAN_ELEMENT_THEORY = SGP/SGP4

EPOCH          = 2026-02-20T12:51:52.224768
MEAN_MOTION    = 15.82038173
ECCENTRICITY   = .00018232
INCLINATION    = 42.9977
RA_OF_ASC_NODE = 245.9900
ARG_OF_PERICENTER = 252.4752
MEAN_ANOMALY   = 107.5921

EPHEMERIS_TYPE = 0
CLASSIFICATION_TYPE = U
NORAD_CAT_ID   = 67618
ELEMENT_SET_NO = 999
REV_AT_EPOCH   = 338
BSTAR          = .2133931E-2
MEAN_MOTION_DOT = .474833E-2
MEAN_MOTION_DDOT = 0

